[{"OBJECT_NAME":"ONEWEB-0125","OBJECT_ID":"2020-100P","EPOCH":"2026-03-09T21:55:55.222176","MEAN_MOTION":13.12443809,"ECCENTRICITY":0.0001512,"INCLINATION":87.9008,"RA_OF_ASC_NODE":10.3548,"ARG_OF_PERICENTER":73.3951,"MEAN_ANOMALY":286.7343,"EPHEMERIS_TYPE":0,"CLASSIFICATION_TYPE":"U","NORAD_CAT_ID":47271,"ELEMENT_SET_NO":999,"REV_AT_EPOCH":25161,"BSTAR":0.00071182172,"MEAN_MOTION_DOT":2.69e-6,"MEAN_MOTION_DDOT":0},{"OBJECT_NAME":"UNKNOWN","OBJECT_ID":"","EPOCH":"2026-03-06T15:35:58.139808","MEAN_MOTION":13.15583679,"ECCENTRICITY":0.00194869,"INCLINATION":82.5467,"RA_OF_ASC_NODE":217.4429,"ARG_OF_PERICENTER":167.5979,"MEAN_ANOMALY":192.5626,"EPHEMERIS_TYPE":0,"CLASSIFICATION_TYPE":"U","NORAD_CAT_ID":270264,"ELEMENT_SET_NO":999,"REV_AT_EPOCH":28717,"BSTAR":0.0016239036,"MEAN_MOTION_DOT":6.25e-6,"MEAN_MOTION_DDOT":0}]
